ONEWEB-0334             
1 49200U 21083Q   23059.27276254  .00000084  00000+0  17362-3 0  9996
2 49200  87.9334 154.2983 0001002  86.9991 273.1257 13.20770133 77747
ONEWEB-0334             
1 49200U 21083Q   23059.27276254  .00000084  00000+0  17362-3 0  9996
2 49200  87.9334 154.2983 0001002  86.9991 273.1257 13.20770133 79031
ONEWEB-0334             
1 49200U 21083Q   23059.80306082  .00000011  00000+0 -48219-5 0  9996
2 49200  87.9331 154.1931 0000980  86.1122 274.0123 13.20770035 77819
ONEWEB-0334             
1 49200U 21083Q   23060.33335846 -.00000070  00000+0 -20346-3 0  9991
2 49200  87.9331 154.0883 0000988  87.3766 272.7480 13.20770631 77889
ONEWEB-0334             
1 49200U 21083Q   23060.33335846 -.00000070  00000+0 -20346-3 0  9991
2 49200  87.9331 154.0883 0000988  87.3766 272.7480 13.20770631 79173
ONEWEB-0334             
1 49200U 21083Q   23061.62122570 -.00000026  00000+0 -96482-4 0  9998
2 49200  87.9333 153.8339 0000964  91.9765 268.1478 13.20769669 78053
ONEWEB-0334             
1 49200U 21083Q   23062.30303598 -.00000103  00000+0 -28413-3 0  9999
2 49200  87.9335 153.6991 0000713 102.3692 257.7521 13.20770580 78142
ONEWEB-0334             
1 49200U 21083Q   23062.30303598 -.00000103  00000+0 -28413-3 0  9999
2 49200  87.9335 153.6991 0000713 102.3692 257.7521 13.20770580 79435
ONEWEB-0334             
1 49200U 21083Q   23062.68182158  .00000148  00000+0  33324-3 0  9991
2 49200  87.9333 153.6241 0001007  92.9016 267.2233 13.20770160 78194
